CCSDS_OMM_VERS = 2.0
CREATION_DATE  = 
ORIGINATOR     = 

OBJECT_NAME    = UNKNOWN
OBJECT_ID      = 
CENTER_NAME    = EARTH
REF_FRAME      = TEME
TIME_SYSTEM    = UTC
MEAN_ELEMENT_THEORY = SGP/SGP4

EPOCH          = 2026-03-05T13:43:09.873120
MEAN_MOTION    = 12.93772921
ECCENTRICITY   = .00301493
INCLINATION    = 90.2293
RA_OF_ASC_NODE = 1.6789
ARG_OF_PERICENTER = 75.9118
MEAN_ANOMALY   = 284.5348

EPHEMERIS_TYPE = 0
CLASSIFICATION_TYPE = U
NORAD_CAT_ID   = 270279
ELEMENT_SET_NO = 999
REV_AT_EPOCH   = 28045
BSTAR          = -.74913539E-4
MEAN_MOTION_DOT = -.13E-6
MEAN_MOTION_DDOT = 0

CCSDS_OMM_VERS = 2.0
CREATION_DATE  = 
ORIGINATOR     = 

OBJECT_NAME    = UNKNOWN
OBJECT_ID      = 
CENTER_NAME    = EARTH
REF_FRAME      = TEME
TIME_SYSTEM    = UTC
MEAN_ELEMENT_THEORY = SGP/SGP4

EPOCH          = 2026-03-02T13:11:07.520640
MEAN_MOTION    = 12.96969337
ECCENTRICITY   = .00273544
INCLINATION    = 90.2444
RA_OF_ASC_NODE = 4.8520
ARG_OF_PERICENTER = 293.4625
MEAN_ANOMALY   = 66.3621

EPHEMERIS_TYPE = 0
CLASSIFICATION_TYPE = U
NORAD_CAT_ID   = 270280
ELEMENT_SET_NO = 999
REV_AT_EPOCH   = 28089
BSTAR          = -.61283843E-3
MEAN_MOTION_DOT = -.17E-5
MEAN_MOTION_DDOT = 0

CCSDS_OMM_VERS = 2.0
CREATION_DATE  = 
ORIGINATOR     = 

OBJECT_NAME    = UNKNOWN
OBJECT_ID      = 
CENTER_NAME    = EARTH
REF_FRAME      = TEME
TIME_SYSTEM    = UTC
MEAN_ELEMENT_THEORY = SGP/SGP4

EPOCH          = 2026-03-05T00:25:54.410304
MEAN_MOTION    = 12.96005504
ECCENTRICITY   = .01889792
INCLINATION    = 82.7022
RA_OF_ASC_NODE = 325.5591
ARG_OF_PERICENTER = 49.8452
MEAN_ANOMALY   = 311.9039

EPHEMERIS_TYPE = 0
CLASSIFICATION_TYPE = U
NORAD_CAT_ID   = 270284
ELEMENT_SET_NO = 999
REV_AT_EPOCH   = 27792
BSTAR          = .19473056E-1
MEAN_MOTION_DOT = .602E-4
MEAN_MOTION_DDOT = 0

CCSDS_OMM_VERS = 2.0
CREATION_DATE  = 
ORIGINATOR     = 

OBJECT_NAME    = UNKNOWN
OBJECT_ID      = 
CENTER_NAME    = EARTH
REF_FRAME      = TEME
TIME_SYSTEM    = UTC
MEAN_ELEMENT_THEORY = SGP/SGP4

EPOCH          = 2026-03-04T22:22:30.098784
MEAN_MOTION    = 12.50155188
ECCENTRICITY   = .00188719
INCLINATION    = 73.6016
RA_OF_ASC_NODE = 309.8518
ARG_OF_PERICENTER = 178.2744
MEAN_ANOMALY   = 181.8374

EPHEMERIS_TYPE = 0
CLASSIFICATION_TYPE = U
NORAD_CAT_ID   = 270292
ELEMENT_SET_NO = 999
REV_AT_EPOCH   = 28601
BSTAR          = .27659993E-2
MEAN_MOTION_DOT = .404E-5
MEAN_MOTION_DDOT = 0

CCSDS_OMM_VERS = 2.0
CREATION_DATE  = 
ORIGINATOR     = 

OBJECT_NAME    = UNKNOWN
OBJECT_ID      = 
CENTER_NAME    = EARTH
REF_FRAME      = TEME
TIME_SYSTEM    = UTC
MEAN_ELEMENT_THEORY = SGP/SGP4

EPOCH          = 2026-02-05T04:31:48.359424
MEAN_MOTION    = 14.54921965
ECCENTRICITY   = .000716
INCLINATION    = 98.6754
RA_OF_ASC_NODE = 203.1389
ARG_OF_PERICENTER = 141.2828
MEAN_ANOMALY   = 218.8882

EPHEMERIS_TYPE = 0
CLASSIFICATION_TYPE = U
NORAD_CAT_ID   = 270293
ELEMENT_SET_NO = 999
REV_AT_EPOCH   = 32767
BSTAR          = .70504281E-3
MEAN_MOTION_DOT = .2984E-4
MEAN_MOTION_DDOT = 0

CCSDS_OMM_VERS = 2.0
CREATION_DATE  = 
ORIGINATOR     = 

OBJECT_NAME    = UNKNOWN
OBJECT_ID      = 
CENTER_NAME    = EARTH
REF_FRAME      = TEME
TIME_SYSTEM    = UTC
MEAN_ELEMENT_THEORY = SGP/SGP4

EPOCH          = 2026-02-04T12:34:08.969952
MEAN_MOTION    = 14.30630574
ECCENTRICITY   = .00757265
INCLINATION    = 99.1687
RA_OF_ASC_NODE = 326.9247
ARG_OF_PERICENTER = 353.5213
MEAN_ANOMALY   = 6.4982

EPHEMERIS_TYPE = 0
CLASSIFICATION_TYPE = U
NORAD_CAT_ID   = 270294
ELEMENT_SET_NO = 999
REV_AT_EPOCH   = 32202
BSTAR          = .11378392E-2
MEAN_MOTION_DOT = .3018E-4
MEAN_MOTION_DDOT = 0

CCSDS_OMM_VERS = 2.0
CREATION_DATE  = 
ORIGINATOR     = 

OBJECT_NAME    = UNKNOWN
OBJECT_ID      = 
CENTER_NAME    = EARTH
REF_FRAME      = TEME
TIME_SYSTEM    = UTC
MEAN_ELEMENT_THEORY = SGP/SGP4

EPOCH          = 2026-03-02T15:31:43.255488
MEAN_MOTION    = 14.74826686
ECCENTRICITY   = .00886532
INCLINATION    = 97.7372
RA_OF_ASC_NODE = 27.9824
ARG_OF_PERICENTER = 173.6901
MEAN_ANOMALY   = 186.5448

EPHEMERIS_TYPE = 0
CLASSIFICATION_TYPE = U
NORAD_CAT_ID   = 270295
ELEMENT_SET_NO = 999
REV_AT_EPOCH   = 10079
BSTAR          = .26126092E-2
MEAN_MOTION_DOT = .18643E-3
MEAN_MOTION_DDOT = 0

CCSDS_OMM_VERS = 2.0
CREATION_DATE  = 
ORIGINATOR     = 

OBJECT_NAME    = UNKNOWN
OBJECT_ID      = 
CENTER_NAME    = EARTH
REF_FRAME      = TEME
TIME_SYSTEM    = UTC
MEAN_ELEMENT_THEORY = SGP/SGP4

EPOCH          = 2026-03-04T06:25:09.576480
MEAN_MOTION    = 12.98038459
ECCENTRICITY   = .00273754
INCLINATION    = 90.2451
RA_OF_ASC_NODE = 4.6460
ARG_OF_PERICENTER = 296.3864
MEAN_ANOMALY   = 63.4447

EPHEMERIS_TYPE = 0
CLASSIFICATION_TYPE = U
NORAD_CAT_ID   = 270296
ELEMENT_SET_NO = 999
REV_AT_EPOCH   = 29592
BSTAR          = .13040418E-2
MEAN_MOTION_DOT = .389E-5
MEAN_MOTION_DDOT = 0

CCSDS_OMM_VERS = 2.0
CREATION_DATE  = 
ORIGINATOR     = 

OBJECT_NAME    = UNKNOWN
OBJECT_ID      = 
CENTER_NAME    = EARTH
REF_FRAME      = TEME
TIME_SYSTEM    = UTC
MEAN_ELEMENT_THEORY = SGP/SGP4

EPOCH          = 2026-02-28T15:14:22.611552
MEAN_MOTION    = 12.99462033
ECCENTRICITY   = .00380194
INCLINATION    = 90.2728
RA_OF_ASC_NODE = 20.7311
ARG_OF_PERICENTER = 223.2972
MEAN_ANOMALY   = 136.5160

EPHEMERIS_TYPE = 0
CLASSIFICATION_TYPE = U
NORAD_CAT_ID   = 270297
ELEMENT_SET_NO = 999
REV_AT_EPOCH   = 29562
BSTAR          = .22675828E-2
MEAN_MOTION_DOT = .686E-5
MEAN_MOTION_DDOT = 0

CCSDS_OMM_VERS = 2.0
CREATION_DATE  = 
ORIGINATOR     = 

OBJECT_NAME    = UNKNOWN
OBJECT_ID      = 
CENTER_NAME    = EARTH
REF_FRAME      = TEME
TIME_SYSTEM    = UTC
MEAN_ELEMENT_THEORY = SGP/SGP4

EPOCH          = 2026-03-05T14:28:36.443712
MEAN_MOTION    = 2.08158188
ECCENTRICITY   = .73619987
INCLINATION    = 59.9972
RA_OF_ASC_NODE = 201.0404
ARG_OF_PERICENTER = 77.5632
MEAN_ANOMALY   = 349.2640

EPHEMERIS_TYPE = 0
CLASSIFICATION_TYPE = U
NORAD_CAT_ID   = 270298
ELEMENT_SET_NO = 999
REV_AT_EPOCH   = 1338
BSTAR          = .64440115E-2
MEAN_MOTION_DOT = .2116E-4
MEAN_MOTION_DDOT = 0

CCSDS_OMM_VERS = 2.0
CREATION_DATE  = 
ORIGINATOR     = 

OBJECT_NAME    = UNKNOWN
OBJECT_ID      = 
CENTER_NAME    = EARTH
REF_FRAME      = TEME
TIME_SYSTEM    = UTC
MEAN_ELEMENT_THEORY = SGP/SGP4

EPOCH          = 2026-03-03T19:00:55.162368
MEAN_MOTION    = 12.95934647
ECCENTRICITY   = .00291532
INCLINATION    = 90.2505
RA_OF_ASC_NODE = 9.5842
ARG_OF_PERICENTER = 87.9537
MEAN_ANOMALY   = 272.4921

EPHEMERIS_TYPE = 0
CLASSIFICATION_TYPE = U
NORAD_CAT_ID   = 270299
ELEMENT_SET_NO = 999
REV_AT_EPOCH   = 27419
BSTAR          = .8762252E-4
MEAN_MOTION_DOT = .33E-6
MEAN_MOTION_DDOT = 0

CCSDS_OMM_VERS = 2.0
CREATION_DATE  = 
ORIGINATOR     = 

OBJECT_NAME    = UNKNOWN
OBJECT_ID      = 
CENTER_NAME    = EARTH
REF_FRAME      = TEME
TIME_SYSTEM    = UTC
MEAN_ELEMENT_THEORY = SGP/SGP4

EPOCH          = 2026-02-26T06:58:09.264864
MEAN_MOTION    = 14.52165511
ECCENTRICITY   = .00305513
INCLINATION    = 98.8422
RA_OF_ASC_NODE = 87.7188
ARG_OF_PERICENTER = 6.7114
MEAN_ANOMALY   = 353.4483

EPHEMERIS_TYPE = 0
CLASSIFICATION_TYPE = U
NORAD_CAT_ID   = 270300
ELEMENT_SET_NO = 999
REV_AT_EPOCH   = 9089
BSTAR          = .85141479E-3
MEAN_MOTION_DOT = .3423E-4
MEAN_MOTION_DDOT = 0

CCSDS_OMM_VERS = 2.0
CREATION_DATE  = 
ORIGINATOR     = 

OBJECT_NAME    = UNKNOWN
OBJECT_ID      = 
CENTER_NAME    = EARTH
REF_FRAME      = TEME
TIME_SYSTEM    = UTC
MEAN_ELEMENT_THEORY = SGP/SGP4

EPOCH          = 2026-03-04T21:25:58.564416
MEAN_MOTION    = 14.49336652
ECCENTRICITY   = .00153849
INCLINATION    = 98.9251
RA_OF_ASC_NODE = 91.0991
ARG_OF_PERICENTER = 180.5797
MEAN_ANOMALY   = 179.5380

EPHEMERIS_TYPE = 0
CLASSIFICATION_TYPE = U
NORAD_CAT_ID   = 270302
ELEMENT_SET_NO = 999
REV_AT_EPOCH   = 25859
BSTAR          = .19165472E-2
MEAN_MOTION_DOT = .7288E-4
MEAN_MOTION_DDOT = 0

CCSDS_OMM_VERS = 2.0
CREATION_DATE  = 
ORIGINATOR     = 

OBJECT_NAME    = UNKNOWN
OBJECT_ID      = 
CENTER_NAME    = EARTH
REF_FRAME      = TEME
TIME_SYSTEM    = UTC
MEAN_ELEMENT_THEORY = SGP/SGP4

EPOCH          = 2026-03-05T07:23:30.759360
MEAN_MOTION    = 15.16846688
ECCENTRICITY   = .00030538
INCLINATION    = 98.6694
RA_OF_ASC_NODE = 94.3286
ARG_OF_PERICENTER = 181.4323
MEAN_ANOMALY   = 178.6899

EPHEMERIS_TYPE = 0
CLASSIFICATION_TYPE = U
NORAD_CAT_ID   = 270304
ELEMENT_SET_NO = 999
REV_AT_EPOCH   = 26068
BSTAR          = .7049134E-2
MEAN_MOTION_DOT = .141256E-2
MEAN_MOTION_DDOT = 0

CCSDS_OMM_VERS = 2.0
CREATION_DATE  = 
ORIGINATOR     = 

OBJECT_NAME    = UNKNOWN
OBJECT_ID      = 
CENTER_NAME    = EARTH
REF_FRAME      = TEME
TIME_SYSTEM    = UTC
MEAN_ELEMENT_THEORY = SGP/SGP4

EPOCH          = 2026-03-05T09:33:09.207072
MEAN_MOTION    = 14.37608688
ECCENTRICITY   = .00090616
INCLINATION    = 98.8238
RA_OF_ASC_NODE = 49.4424
ARG_OF_PERICENTER = 60.9353
MEAN_ANOMALY   = 299.2740

EPHEMERIS_TYPE = 0
CLASSIFICATION_TYPE = U
NORAD_CAT_ID   = 270305
ELEMENT_SET_NO = 999
REV_AT_EPOCH   = 25616
BSTAR          = .82113208E-3
MEAN_MOTION_DOT = .2419E-4
MEAN_MOTION_DDOT = 0

CCSDS_OMM_VERS = 2.0
CREATION_DATE  = 
ORIGINATOR     = 

OBJECT_NAME    = UNKNOWN
OBJECT_ID      = 
CENTER_NAME    = EARTH
REF_FRAME      = TEME
TIME_SYSTEM    = UTC
MEAN_ELEMENT_THEORY = SGP/SGP4

EPOCH          = 2026-02-28T13:14:00.286944
MEAN_MOTION    = 12.92702307
ECCENTRICITY   = .00262464
INCLINATION    = 90.2484
RA_OF_ASC_NODE = 4.5787
ARG_OF_PERICENTER = 212.0971
MEAN_ANOMALY   = 147.8550

EPHEMERIS_TYPE = 0
CLASSIFICATION_TYPE = U
NORAD_CAT_ID   = 270306
ELEMENT_SET_NO = 999
REV_AT_EPOCH   = 25058
BSTAR          = .94457534E-4
MEAN_MOTION_DOT = .33E-6
MEAN_MOTION_DDOT = 0

